[{"OBJECT_NAME":"OBJECT B","OBJECT_ID":"2024-092B","EPOCH":"2026-03-09T22:35:16.756224","MEAN_MOTION":15.26654665,"ECCENTRICITY":0.00097063,"INCLINATION":97.6334,"RA_OF_ASC_NODE":195.5822,"ARG_OF_PERICENTER":166.5945,"MEAN_ANOMALY":193.5553,"EPHEMERIS_TYPE":0,"CLASSIFICATION_TYPE":"U","NORAD_CAT_ID":59774,"ELEMENT_SET_NO":999,"REV_AT_EPOCH":10038,"BSTAR":0.00052893964,"MEAN_MOTION_DOT":0.00013825,"MEAN_MOTION_DDOT":0},{"OBJECT_NAME":"STARLINK-35893","OBJECT_ID":"2025-268J","EPOCH":"2026-03-09T04:14:12.463296","MEAN_MOTION":15.2758527,"ECCENTRICITY":0.00017748,"INCLINATION":43.0028,"RA_OF_ASC_NODE":349.7575,"ARG_OF_PERICENTER":257.0329,"MEAN_ANOMALY":103.0325,"EPHEMERIS_TYPE":0,"CLASSIFICATION_TYPE":"U","NORAD_CAT_ID":66565,"ELEMENT_SET_NO":999,"REV_AT_EPOCH":1788,"BSTAR":0.0010110269,"MEAN_MOTION_DOT":0.00027668,"MEAN_MOTION_DDOT":0}]
